COMMENT,ORIGINATOR,NORAD_CAT_ID,OBJECT_NAME,OBJECT_TYPE,CLASSIFICATION_TYPE,INTLDES,EPOCH,EPOCH_MICROSECONDS,MEAN_MOTION,ECCENTRICITY,INCLINATION,RA_OF_ASC_NODE,ARG_OF_PERICENTER,MEAN_ANOMALY,EPHEMERIS_TYPE,ELEMENT_SET_NO,REV_AT_EPOCH,BSTAR,MEAN_MOTION_DOT,MEAN_MOTION_DDOT,FILE,TLE_LINE0,TLE_LINE1,TLE_LINE2,OBJECT_ID,OBJECT_NUMBER,SEMIMAJOR_AXIS,PERIOD,APOGEE,PERIGEE,DECAYED
"GENERATED VIA SPACETRACK.ORG API","18 SPCS","55095","SPACEBEE-162","PAYLOAD","U","23001CQ","2023-09-05 02:51:17","432064","15.22731673","0.0015419","97.4685","307.616","86.274","274.0259","0","999","3725","0.00080101","0.00018707","0","3998343","0 SPACEBEE-162","1 55095U 23001CQ  23248.11895176  .00018707  00000-0  80101-3 0  9993","2 55095  97.4685 307.6160 0015419  86.2740 274.0259 15.22731673 37258","2023-001CQ","55095","6875.742","94.567","508.209","487.006","0"
"GENERATED VIA SPACETRACK.ORG API","18 SPCS","55095","SPACEBEE-162","PAYLOAD","U","23001CQ","2023-09-06 02:30:41","41152","15.22769096","0.0015388","97.4687","308.5958","83.0754","277.2232","0","999","3740","0.00087786","0.00020536","0","3998831","0 SPACEBEE-162","1 55095U 23001CQ  23249.10464168  .00020536  00000-0  87786-3 0  9995","2 55095  97.4687 308.5958 0015388  83.0754 277.2232 15.22769096 37403","2023-001CQ","55095","6875.630","94.565","508.075","486.914","0"
"GENERATED VIA SPACETRACK.ORG API","18 SPCS","55095","SPACEBEE-162","PAYLOAD","U","23001CQ","2023-09-06 04:05:18","548448","15.22771516","0.0015361","97.4687","308.6613","82.686","277.6122","0","999","3741","0.00082515","0.00019297","0","3999158","0 SPACEBEE-162","1 55095U 23001CQ  23249.17035357  .00019297  00000-0  82515-3 0  9993","2 55095  97.4687 308.6613 0015361  82.6860 277.6122 15.22771516 37419","2023-001CQ","55095","6875.622","94.564","508.049","486.926","0"
"GENERATED VIA SPACETRACK.ORG API","18 SPCS","55095","SPACEBEE-162","PAYLOAD","U","23001CQ","2023-09-06 21:26:10","478976","15.2279962","0.0015354","97.4687","309.3796","80.5465","279.7506","0","999","3752","0.00089203","0.00020888","0","3999376","0 SPACEBEE-162","1 55095U 23001CQ  23249.89317684  .00020888  00000-0  89203-3 0  9997","2 55095  97.4687 309.3796 0015354  80.5465 279.7506 15.22799620 37526","2023-001CQ","55095","6875.538","94.563","507.959","486.846","0"
"GENERATED VIA SPACETRACK.ORG API","18 SPCS","55095","SPACEBEE-162","PAYLOAD","U","23001CQ","2023-09-07 10:03:09","360576","15.22819562","0.0015302","97.4687","309.9023","78.9283","281.3674","0","999","3760","0.00091011","0.00021326","0","4000013","0 SPACEBEE-162","1 55095U 23001CQ  23250.41885834  .00021326  00000-0  91011-3 0  9992","2 55095  97.4687 309.9023 0015302  78.9283 281.3674 15.22819562 37609","2023-001CQ","55095","6875.478","94.561","507.864","486.822","0"
"GENERATED VIA SPACETRACK.ORG API","18 SPCS","55095","SPACEBEE-162","PAYLOAD","U","23001CQ","2023-09-07 10:03:09","360576","15.22819562","0.0015302","97.4687","309.9023","78.9283","281.3674","0","999","3760","0.00091011","0.00021326","0","4000037","0 SPACEBEE-162","1 55095U 23001CQ  23250.41885834  .00021326  00000-0  91011-3 0  9992","2 55095  97.4687 309.9023 0015302  78.9283 281.3674 15.22819562 37609","2023-001CQ","55095","6875.478","94.561","507.864","486.822","0"
"GENERATED VIA SPACETRACK.ORG API","18 SPCS","55095","SPACEBEE-162","PAYLOAD","U","23001CQ","2023-09-07 14:47:01","299264","15.22826221","0.0015288","97.4686","310.0982","78.277","282.018","0","999","3763","0.00087853","0.00020586","0","4000222","0 SPACEBEE-162","1 55095U 23001CQ  23250.61598726  .00020586  00000-0  87853-3 0  9991","2 55095  97.4686 310.0982 0015288  78.2770 282.0180 15.22826221 37635","2023-001CQ","55095","6875.458","94.561","507.834","486.811","0"
"GENERATED VIA SPACETRACK.ORG API","18 SPCS","55095","SPACEBEE-162","PAYLOAD","U","23001CQ","2023-09-08 09:42:28","201248","15.22854149","0.0015171","97.4688","310.882","75.7223","284.5698","0","999","3775","0.00084626","0.0001984","0","4000854","0 SPACEBEE-162","1 55095U 23001CQ  23251.40449307  .00019840  00000-0  84626-3 0  9995","2 55095  97.4688 310.8820 0015171  75.7223 284.5698 15.22854149 37756","2023-001CQ","55095","6875.374","94.559","507.669","486.808","0"
"GENERATED VIA SPACETRACK.ORG API","18 SPCS","55095","SPACEBEE-162","PAYLOAD","U","23001CQ","2023-09-08 17:35:34","77120","15.22864015","0.0015132","97.4688","311.2086","74.6263","285.6644","0","999","3780","0.0007789","0.00018257","0","4001148","0 SPACEBEE-162","1 55095U 23001CQ  23251.73303330  .00018257  00000-0  77890-3 0  9992","2 55095  97.4688 311.2086 0015132  74.6263 285.6644 15.22864015 37806","2023-001CQ","55095","6875.344","94.559","507.613","486.805","0"
"GENERATED VIA SPACETRACK.ORG API","18 SPCS","55095","SPACEBEE-162","PAYLOAD","U","23001CQ","2023-09-08 17:35:34","77120","15.22864015","0.0015132","97.4688","311.2086","74.6263","285.6644","0","999","3780","0.0007789","0.00018257","0","4001154","0 SPACEBEE-162","1 55095U 23001CQ  23251.73303330  .00018257  00000-0  77890-3 0  9992","2 55095  97.4688 311.2086 0015132  74.6263 285.6644 15.22864015 37806","2023-001CQ","55095","6875.344","94.559","507.613","486.805","0"
"GENERATED VIA SPACETRACK.ORG API","18 SPCS","55095","SPACEBEE-162","PAYLOAD","U","23001CQ","2023-09-09 03:03:16","729344","15.22882858","0.0015078","97.4688","311.6006","73.4547","286.8345","0","999","3786","0.00090162","0.00021164","0","4001770","0 SPACEBEE-162","1 55095U 23001CQ  23252.12727696  .00021164  00000-0  90162-3 0  9999","2 55095  97.4688 311.6006 0015078  73.4547 286.8345 15.22882858 37865","2023-001CQ","55095","6875.287","94.558","507.519","486.786","0"
"GENERATED VIA SPACETRACK.ORG API","18 SPCS","55095","SPACEBEE-162","PAYLOAD","U","23001CQ","2023-09-10 02:42:31","846176","15.2292563","0.0015028","97.4688","312.5803","70.2592","290.0264","0","999","3801","0.0010038","0.00023607","0","4002317","0 SPACEBEE-162","1 55095U 23001CQ  23253.11286859  .00023607  00000-0  10038-2 0  9997","2 55095  97.4688 312.5803 0015028  70.2592 290.0264 15.22925630 38011","2023-001CQ","55095","6875.158","94.555","507.355","486.691","0"
"GENERATED VIA SPACETRACK.ORG API","18 SPCS","55095","SPACEBEE-162","PAYLOAD","U","23001CQ","2023-09-10 02:42:31","846176","15.2292563","0.0015028","97.4688","312.5803","70.2592","290.0264","0","999","3801","0.0010038","0.00023607","0","4002632","0 SPACEBEE-162","1 55095U 23001CQ  23253.11286859  .00023607  00000-0  10038-2 0  9997","2 55095  97.4688 312.5803 0015028  70.2592 290.0264 15.22925630 38011","2023-001CQ","55095","6875.158","94.555","507.355","486.691","0"
"GENERATED VIA SPACETRACK.ORG API","18 SPCS","55095","SPACEBEE-162","PAYLOAD","U","23001CQ","2023-09-11 02:21:44","723520","15.22963102","0.0015","97.4689","313.5605","67.0674","293.2144","0","999","3816","0.00089261","0.00021","0","4003216","0 SPACEBEE-162","1 55095U 23001CQ  23254.09843430  .00021000  00000-0  89261-3 0  9999","2 55095  97.4689 313.5605 0015000  67.0674 293.2144 15.22963102 38162","2023-001CQ","55095","6875.046","94.553","507.223","486.598","0"
"GENERATED VIA SPACETRACK.ORG API","18 SPCS","55095","SPACEBEE-162","PAYLOAD","U","23001CQ","2023-09-11 10:14:48","533568","15.22974219","0.0014987","97.4688","313.8872","65.9704","294.3099","0","999","3821","0.00084867","0.00019967","0","4003535","0 SPACEBEE-162","1 55095U 23001CQ  23254.42695062  .00019967  00000-0  84867-3 0  9998","2 55095  97.4688 313.8872 0014987  65.9704 294.3099 15.22974219 38212","2023-001CQ","55095","6875.012","94.552","507.181","486.574","0"
"GENERATED VIA SPACETRACK.ORG API","18 SPCS","55095","SPACEBEE-162","PAYLOAD","U","23001CQ","2023-09-12 03:35:31","929504","15.23006833","0.0014906","97.4687","314.6062","63.467","296.8092","0","999","3832","0.00093343","0.00021994","0","4004403","0 SPACEBEE-162","1 55095U 23001CQ  23255.14967511  .00021994  00000-0  93343-3 0  9991","2 55095  97.4687 314.6062 0014906  63.4670 296.8092 15.23006833 38328","2023-001CQ","55095","6874.914","94.550","507.027","486.531","0"
"GENERATED VIA SPACETRACK.ORG API","18 SPCS","55095","SPACEBEE-162","PAYLOAD","U","23001CQ","2023-09-12 03:35:31","929504","15.23006833","0.0014906","97.4687","314.6062","63.467","296.8092","0","999","3832","0.00093343","0.00021994","0","4004425","0 SPACEBEE-162","1 55095U 23001CQ  23255.14967511  .00021994  00000-0  93343-3 0  9991","2 55095  97.4687 314.6062 0014906  63.4670 296.8092 15.23006833 38328","2023-001CQ","55095","6874.914","94.550","507.027","486.531","0"
"GENERATED VIA SPACETRACK.ORG API","18 SPCS","55095","SPACEBEE-162","PAYLOAD","U","23001CQ","2023-09-12 17:47:01","1184","15.23034078","0.0014808","97.4685","315.1942","61.5907","298.682","0","999","3841","0.00099446","0.0002346","0","4004701","0 SPACEBEE-162","1 55095U 23001CQ  23255.74098381  .00023460  00000-0  99446-3 0  9997","2 55095  97.4685 315.1942 0014808  61.5907 298.6820 15.23034078 38413","2023-001CQ","55095","6874.832","94.548","506.877","486.517","0"
"GENERATED VIA SPACETRACK.ORG API","18 SPCS","55095","SPACEBEE-162","PAYLOAD","U","23001CQ","2023-09-13 03:14:39","621120","15.23067868","0.0014778","97.4683","315.5864","60.0552","300.215","0","999","3847","0.0015239","0.00036083","0","4005332","0 SPACEBEE-162","1 55095U 23001CQ  23256.13518080  .00036083  00000-0  15239-2 0  9996","2 55095  97.4683 315.5864 0014778  60.0552 300.2150 15.23067868 38479","2023-001CQ","55095","6874.730","94.546","506.755","486.436","0"
"GENERATED VIA SPACETRACK.ORG API","18 SPCS","55095","SPACEBEE-162","PAYLOAD","U","23001CQ","2023-09-13 03:14:39","621120","15.23067868","0.0014778","97.4683","315.5864","60.0552","300.215","0","999","3847","0.0015239","0.00036083","0","4005353","0 SPACEBEE-162","1 55095U 23001CQ  23256.13518080  .00036083  00000-0  15239-2 0  9996","2 55095  97.4683 315.5864 0014778  60.0552 300.2150 15.23067868 38479","2023-001CQ","55095","6874.730","94.546","506.755","486.436","0"
